OBJECT B                
1 51825U 22019B   25196.91307042  .00015076  00000+0  35889-3 0  9998
2 51825  97.3835 273.9436 0008201 276.0933  83.9379 15.41679819187492
